{
  "type": "FeatureCollection",
  "features": [
    {
      "type": "Feature",
      "properties": {
        "norad_id": 33901,
        "name": "COSMOS 2251 DEB",
        "group": "cosmos-2251-debris",
        "lat": -73.45180240817382,
        "lon": -81.00991422931263,
        "alt_km": 530.0192243050178,
        "timestamp": "2025-12-26T08:37:54.972556+00:00",
        "meta_object_name": "COSMOS 2251 DEB",
        "meta_object_id": "1993-036DE",
        "meta_epoch": "2025-12-26T02:42:53.396064",
        "meta_mean_motion": 15.17320274,
        "meta_eccentricity": 0.0029687,
        "meta_inclination": 73.7741,
        "meta_ra_of_asc_node": 20.9586,
        "meta_arg_of_pericenter": 150.3927,
        "meta_mean_anomaly": 209.8956,
        "meta_ephemeris_type": 0,
        "meta_classification_type": "U",
        "meta_norad_cat_id": 33901,
        "meta_element_set_no": 999,
        "meta_rev_at_epoch": 89716,
        "meta_bstar": 0.002447,
        "meta_mean_motion_dot": 0.00049663,
        "meta_mean_motion_ddot": 0,
        "tle_line1": "1 33901U 93036DE  25360.11311801  .00049663  00000+0  24470-2 0  9995",
        "tle_line2": "2 33901  73.7741  20.9586 0029687 150.3927 209.8956 15.17320274897168"
      },
      "geometry": {
        "type": "Point",
        "coordinates": [
          -81.00991422931263,
          -73.45180240817382
        ]
      }
    },
    {
      "type": "Feature",
      "properties": {
        "norad_id": 33905,
        "name": "COSMOS 2251 DEB",
        "group": "cosmos-2251-debris",
        "lat": -34.27749870188428,
        "lon": -79.9283269572296,
        "alt_km": 813.9291067942713,
        "timestamp": "2025-12-26T08:37:54.972567+00:00",
        "meta_object_name": "COSMOS 2251 DEB",
        "meta_object_id": "1993-036DJ",
        "meta_epoch": "2025-12-25T21:21:48.164256",
        "meta_mean_motion": 14.35428413,
        "meta_eccentricity": 0.0058089,
        "meta_inclination": 73.8868,
        "meta_ra_of_asc_node": 292.3034,
        "meta_arg_of_pericenter": 178.9773,
        "meta_mean_anomaly": 239.5395,
        "meta_ephemeris_type": 0,
        "meta_classification_type": "U",
        "meta_norad_cat_id": 33905,
        "meta_element_set_no": 999,
        "meta_rev_at_epoch": 87876,
        "meta_bstar": 0.00053799,
        "meta_mean_motion_dot": 1.548e-05,
        "meta_mean_motion_ddot": 0,
        "tle_line1": "1 33905U 93036DJ  25359.89014079  .00001548  00000+0  53799-3 0  9996",
        "tle_line2": "2 33905  73.8868 292.3034 0058089 178.9773 239.5395 14.35428413878764"
      },
      "geometry": {
        "type": "Point",
        "coordinates": [
          -79.9283269572296,
          -34.27749870188428
        ]
      }
    },
    {
      "type": "Feature",
      "properties": {
        "norad_id": 33906,
        "name": "COSMOS 2251 DEB",
        "group": "cosmos-2251-debris",
        "lat": -15.070207423311869,
        "lon": 120.01180686570106,
        "alt_km": 722.1063702055962,
        "timestamp": "2025-12-26T08:37:54.972577+00:00",
        "meta_object_name": "COSMOS 2251 DEB",
        "meta_object_id": "1993-036DK",
        "meta_epoch": "2025-12-25T22:07:37.012224",
        "meta_mean_motion": 14.57306917,
        "meta_eccentricity": 0.0036915,
        "meta_inclination": 74.0302,
        "meta_ra_of_asc_node": 296.4211,
        "meta_arg_of_pericenter": 324.0836,
        "meta_mean_anomaly": 96.415,
        "meta_ephemeris_type": 0,
        "meta_classification_type": "U",
        "meta_norad_cat_id": 33906,
        "meta_element_set_no": 999,
        "meta_rev_at_epoch": 88200,
        "meta_bstar": 0.0018801,
        "meta_mean_motion_dot": 8.57e-05,
        "meta_mean_motion_ddot": 0,
        "tle_line1": "1 33906U 93036DK  25359.92195616  .00008570  00000+0  18801-2 0  9994",
        "tle_line2": "2 33906  74.0302 296.4211 0036915 324.0836  96.4150 14.57306917882000"
      },
      "geometry": {
        "type": "Point",
        "coordinates": [
          120.01180686570106,
          -15.070207423311869
        ]
      }
    },
    {
      "type": "Feature",
      "properties": {
        "norad_id": 33907,
        "name": "COSMOS 2251 DEB",
        "group": "cosmos-2251-debris",
        "lat": -54.20264624447904,
        "lon": -14.418079193790684,
        "alt_km": 832.9491178501685,
        "timestamp": "2025-12-26T08:37:54.972587+00:00",
        "meta_object_name": "COSMOS 2251 DEB",
        "meta_object_id": "1993-036DL",
        "meta_epoch": "2025-12-26T02:26:51.758880",
        "meta_mean_motion": 14.3063031,
        "meta_eccentricity": 0.0111951,
        "meta_inclination": 74.0705,
        "meta_ra_of_asc_node": 9.38,
        "meta_arg_of_pericenter": 60.8464,
        "meta_mean_anomaly": 356.2762,
        "meta_ephemeris_type": 0,
        "meta_classification_type": "U",
        "meta_norad_cat_id": 33907,
        "meta_element_set_no": 999,
        "meta_rev_at_epoch": 86771,
        "meta_bstar": 0.0019061,
        "meta_mean_motion_dot": 5.31e-05,
        "meta_mean_motion_ddot": 0,
        "tle_line1": "1 33907U 93036DL  25360.10198795  .00005310  00000+0  19061-2 0  9996",
        "tle_line2": "2 33907  74.0705   9.3800 0111951  60.8464 356.2762 14.30630310867714"
      },
      "geometry": {
        "type": "Point",
        "coordinates": [
          -14.418079193790684,
          -54.20264624447904
        ]
      }
    },
    {
      "type": "Feature",
      "properties": {
        "norad_id": 33908,
        "name": "COSMOS 2251 DEB",
        "group": "cosmos-2251-debris",
        "lat": -70.39523292673843,
        "lon": 127.08690804784213,
        "alt_km": 839.8769074821703,
        "timestamp": "2025-12-26T08:37:54.972598+00:00",
        "meta_object_name": "COSMOS 2251 DEB",
        "meta_object_id": "1993-036DM",
        "meta_epoch": "2025-12-25T14:14:52.263744",
        "meta_mean_motion": 14.07447206,
        "meta_eccentricity": 0.0222244,
        "meta_inclination": 73.8371,
        "meta_ra_of_asc_node": 182.9563,
        "meta_arg_of_pericenter": 204.1101,
        "meta_mean_anomaly": 154.9509,
        "meta_ephemeris_type": 0,
        "meta_classification_type": "U",
        "meta_norad_cat_id": 33908,
        "meta_element_set_no": 999,
        "meta_rev_at_epoch": 85654,
        "meta_bstar": 0.0026861,
        "meta_mean_motion_dot": 5.642e-05,
        "meta_mean_motion_ddot": 0,
        "tle_line1": "1 33908U 93036DM  25359.59366046  .00005642  00000+0  26861-2 0  9998",
        "tle_line2": "2 33908  73.8371 182.9563 0222244 204.1101 154.9509 14.07447206856549"
      },
      "geometry": {
        "type": "Point",
        "coordinates": [
          127.08690804784213,
          -70.39523292673843
        ]
      }
    },
    {
      "type": "Feature",
      "properties": {
        "norad_id": 33911,
        "name": "COSMOS 2251 DEB",
        "group": "cosmos-2251-debris",
        "lat": 56.19841988525316,
        "lon": -69.89089787036379,
        "alt_km": 632.9698361699129,
        "timestamp": "2025-12-26T08:37:54.972608+00:00",
        "meta_object_name": "COSMOS 2251 DEB",
        "meta_object_id": "1993-036DQ",
        "meta_epoch": "2025-12-26T03:27:21.077280",
        "meta_mean_motion": 14.75198476,
        "meta_eccentricity": 0.001406,
        "meta_inclination": 74.0905,
        "meta_ra_of_asc_node": 135.7458,
        "meta_arg_of_pericenter": 66.6606,
        "meta_mean_anomaly": 348.4887,
        "meta_ephemeris_type": 0,
        "meta_classification_type": "U",
        "meta_norad_cat_id": 33911,
        "meta_element_set_no": 999,
        "meta_rev_at_epoch": 88842,
        "meta_bstar": 0.002158,
        "meta_mean_motion_dot": 0.00014608,
        "meta_mean_motion_ddot": 0,
        "tle_line1": "1 33911U 93036DQ  25360.14399395  .00014608  00000+0  21580-2 0  9993",
        "tle_line2": "2 33911  74.0905 135.7458 0014060  66.6606 348.4887 14.75198476888422"
      },
      "geometry": {
        "type": "Point",
        "coordinates": [
          -69.89089787036379,
          56.19841988525316
        ]
      }
    },
    {
      "type": "Feature",
      "properties": {
        "norad_id": 33912,
        "name": "COSMOS 2251 DEB",
        "group": "cosmos-2251-debris",
        "lat": -41.88262545017817,
        "lon": 149.19124456254488,
        "alt_km": 723.094564061762,
        "timestamp": "2025-12-26T08:37:54.972618+00:00",
        "meta_object_name": "COSMOS 2251 DEB",
        "meta_object_id": "1993-036DR",
        "meta_epoch": "2025-12-25T11:28:32.599776",
        "meta_mean_motion": 14.51967051,
        "meta_eccentricity": 0.0011296,
        "meta_inclination": 74.033,
        "meta_ra_of_asc_node": 165.7278,
        "meta_arg_of_pericenter": 245.0608,
        "meta_mean_anomaly": 145.0748,
        "meta_ephemeris_type": 0,
        "meta_classification_type": "U",
        "meta_norad_cat_id": 33912,
        "meta_element_set_no": 999,
        "meta_rev_at_epoch": 88618,
        "meta_bstar": 0.00082992,
        "meta_mean_motion_dot": 3.327e-05,
        "meta_mean_motion_ddot": 0,
        "tle_line1": "1 33912U 93036DR  25359.47815509  .00003327  00000+0  82992-3 0  9999",
        "tle_line2": "2 33912  74.0330 165.7278 0011296 245.0608 145.0748 14.51967051886186"
      },
      "geometry": {
        "type": "Point",
        "coordinates": [
          149.19124456254488,
          -41.88262545017817
        ]
      }
    }
  ]
}